NORAD_CAT_ID,OBJECT_NAME,OBJECT_TYPE,EPOCH,MEAN_MOTION,ECCENTRICITY,INCLINATION,RA_OF_ASC_NODE,ARG_OF_PERICENTER,MEAN_ANOMALY,BSTAR,MEAN_MOTION_DOT,MEAN_MOTION_DDOT,TLE_LINE0,TLE_LINE1,TLE_LINE2,SEMIMAJOR_AXIS,PERIOD,APOGEE,PERIGEE,DECAYED
53570.0,STARLINK-4550,PAYLOAD,2023-10-27 12:04:18,15.08861071,0.0001612,53.2185,333.5125,96.7816,263.3359,0.00029519,4.416e-05,0.0,0 STARLINK-4550,1 53570U 22101AV  23300.50298805  .00004416  00000-0  29519-3 0  9995,2 53570  53.2185 333.5125 0001612  96.7816 263.3359 15.08861071 65981,6917.816,95.436,540.796,538.566,0.0
53570.0,STARLINK-4550,PAYLOAD,2023-10-28 08:44:20,15.08832436,0.0001675,53.2181,329.646,97.8182,262.3,-5.7074e-05,-1.196e-05,0.0,0 STARLINK-4550,1 53570U 22101AV  23301.36412537 -.00001196  00000-0 -57074-4 0  9992,2 53570  53.2181 329.6460 0001675  97.8182 262.3000 15.08832436 66113,6917.904,95.438,540.927,538.61,0.0
53570.0,STARLINK-4550,PAYLOAD,2023-10-28 11:55:06,15.08834154,0.0001675,53.2179,329.0506,95.9268,264.1915,-3.2247e-05,-8.01e-06,0.0,0 STARLINK-4550,1 53570U 22101AV  23301.49660552 -.00000801  00000-0 -32247-4 0  9995,2 53570  53.2179 329.0506 0001675  95.9268 264.1915 15.08834154 66821,6917.898,95.438,540.922,538.605,0.0
53570.0,STARLINK-4550,PAYLOAD,2023-10-29 11:45:52,15.08867029,0.0001762,53.2175,324.5908,75.8933,284.2254,0.00097277,0.00015239,0.0,0 STARLINK-4550,1 53570U 22101AV  23302.49019641  .00015239  00000-0  97277-3 0  9995,2 53570  53.2175 324.5908 0001762  75.8933 284.2254 15.08867029 66282,6917.798,95.436,540.882,538.444,0.0
53570.0,STARLINK-4550,PAYLOAD,2023-10-29 18:07:26,15.08843177,0.0002593,53.2176,323.4007,90.0787,270.0502,-3.0848e-05,-7.79e-06,0.0,0 STARLINK-4550,1 53570U 22101AV  23302.75516267 -.00000779  00000-0 -30848-4 0  9997,2 53570  53.2176 323.4007 0002593  90.0787 270.0502 15.08843177 66322,6917.871,95.437,541.529,537.942,0.0
53570.0,STARLINK-4550,PAYLOAD,2023-10-30 17:58:13,15.08835643,0.0001902,53.2177,318.9431,96.6121,263.5088,0.00032279,4.852e-05,0.0,0 STARLINK-4550,1 53570U 22101AV  23303.74876424  .00004852  00000-0  32279-3 0  9994,2 53570  53.2177 318.9431 0001902  96.6121 263.5088 15.08835643 67168,6917.894,95.438,541.074,538.443,0.0
53570.0,STARLINK-4550,PAYLOAD,2023-10-31 05:05:55,15.08826963,0.0001963,53.2182,316.8614,98.0822,262.0393,-3.6366e-05,-8.67e-06,0.0,0 STARLINK-4550,1 53570U 22101AV  23304.21244944 -.00000867  00000-0 -36366-4 0  9999,2 53570  53.2182 316.8614 0001963  98.0822 262.0393 15.08826963 66544,6917.92,95.438,541.143,538.427,0.0
53570.0,STARLINK-4550,PAYLOAD,2023-10-31 11:27:28,15.08836497,0.0002041,53.2181,315.6722,96.7003,263.4221,1.2596e-07,-2.86e-06,0.0,0 STARLINK-4550,1 53570U 22101AV  23304.47740835 -.00000286  00000-0  12596-6 0  9992,2 53570  53.2181 315.6722 0002041  96.7003 263.4221 15.08836497 67273,6917.891,95.438,541.168,538.344,0.0
53570.0,STARLINK-4550,PAYLOAD,2023-10-31 17:49:00,15.08835391,0.0002007,53.2185,314.4827,92.1046,268.0176,5.5939e-05,6.02e-06,0.0,0 STARLINK-4550,1 53570U 22101AV  23304.74237033  .00000602  00000-0  55939-4 0  9990,2 53570  53.2185 314.4827 0002007  92.1046 268.0176 15.08835391 67316,6917.894,95.438,541.148,538.371,0.0
53570.0,STARLINK-4550,PAYLOAD,2023-11-01 04:56:42,15.0884407,0.0001899,53.2178,312.4007,93.5768,266.5442,0.00030491,4.568e-05,0.0,0 STARLINK-4550,1 53570U 22101AV  23305.20604832  .00004568  00000-0  30491-3 0  9997,2 53570  53.2178 312.4007 0001899  93.5768 266.5442 15.08844070 66693,6917.868,95.437,541.047,538.419,0.0
53570.0,STARLINK-4550,PAYLOAD,2023-11-01 08:07:28,15.08848862,0.0001818,53.2174,311.8054,92.7129,267.4072,0.00038502,5.846e-05,0.0,0 STARLINK-4550,1 53570U 22101AV  23305.33852666  .00005846  00000-0  38502-3 0  9992,2 53570  53.2174 311.8054 0001818  92.7129 267.4072 15.08848862 67409,6917.853,95.437,540.976,538.461,0.0
53570.0,STARLINK-4550,PAYLOAD,2023-11-01 17:39:47,15.0884149,0.0002102,53.2188,310.0226,81.3295,278.7936,0.00017839,2.552e-05,0.0,0 STARLINK-4550,1 53570U 22101AV  23305.73597032  .00002552  00000-0  17839-3 0  9990,2 53570  53.2188 310.0226 0002102  81.3295 278.7936 15.08841490 66774,6917.876,95.437,541.195,538.287,0.0
53570.0,STARLINK-4550,PAYLOAD,2023-11-02 09:33:39,15.08844922,0.0001934,53.2191,307.046,87.1386,272.9827,0.0001846,2.651e-05,0.0,0 STARLINK-4550,1 53570U 22101AV  23306.39836825  .00002651  00000-0  18460-3 0  9990,2 53570  53.2191 307.0460 0001934  87.1386 272.9827 15.08844922 67567,6917.865,95.437,541.068,538.392,0.0
53570.0,STARLINK-4550,PAYLOAD,2023-11-02 17:30:34,15.08840919,0.0001907,53.2178,305.5606,87.4107,272.7104,7.5265e-05,9.1e-06,0.0,0 STARLINK-4550,1 53570U 22101AV  23306.72957009  .00000910  00000-0  75265-4 0  9998,2 53570  53.2178 305.5606 0001907  87.4107 272.7104 15.08840919 67615,6917.878,95.437,541.062,538.423,0.0
53570.0,STARLINK-4550,PAYLOAD,2023-11-03 04:38:16,15.08844794,0.0001916,53.2178,303.4797,87.9153,272.2058,7.9625e-05,9.79e-06,0.0,0 STARLINK-4550,1 53570U 22101AV  23307.19324865  .00000979  00000-0  79625-4 0  9997,2 53570  53.2178 303.4797 0001916  87.9153 272.2058 15.08844794 66997,6917.866,95.437,541.056,538.405,0.0
53570.0,STARLINK-4550,PAYLOAD,2023-11-03 06:13:39,15.08845778,0.0002117,53.2176,303.1831,82.7066,277.4167,9.1939e-05,1.175e-05,0.0,0 STARLINK-4550,1 53570U 22101AV  23307.25948853  .00001175  00000-0  91939-4 0  9994,2 53570  53.2176 303.1831 0002117  82.7066 277.4167 15.08845778 67690,6917.863,95.437,541.192,538.263,0.0
53570.0,STARLINK-4550,PAYLOAD,2023-11-03 17:21:22,15.08839351,0.0002115,53.2175,301.1024,80.3032,279.8199,4.0865e-05,3.62e-06,0.0,0 STARLINK-4550,1 53570U 22101AV  23307.72317247  .00000362  00000-0  40865-4 0  9992,2 53570  53.2175 301.1024 0002115  80.3032 279.8199 15.08839351 67079,6917.882,95.438,541.211,538.284,0.0
53570.0,STARLINK-4550,PAYLOAD,2023-11-04 09:15:13,15.08844494,0.0001866,53.2176,298.1244,97.4422,262.6782,8.2833e-05,1.031e-05,0.0,0 STARLINK-4550,1 53570U 22101AV  23308.38556927  .00001031  00000-0  82833-4 0  9990,2 53570  53.2176 298.1244 0001866  97.4422 262.6782 15.08844494 67862,6917.867,95.437,541.023,538.441,0.0
53570.0,STARLINK-4550,PAYLOAD,2023-11-05 04:19:51,15.08844043,0.0001995,53.2172,294.5592,95.3034,264.8186,0.00015144,2.123e-05,0.0,0 STARLINK-4550,1 53570U 22101AV  23309.18045212  .00002123  00000-0  15144-3 0  9992,2 53570  53.2172 294.5592 0001995  95.3034 264.8186 15.08844043 67292,6917.868,95.437,541.113,538.353,0.0
53570.0,STARLINK-4550,PAYLOAD,2023-11-05 05:55:14,15.08849142,0.0001839,53.2169,294.2611,89.7056,270.4147,0.00023573,3.466e-05,0.0,0 STARLINK-4550,1 53570U 22101AV  23309.24668986  .00003466  00000-0  23573-3 0  9994,2 53570  53.2169 294.2611 0001839  89.7056 270.4147 15.08849142 67997,6917.852,95.437,540.99,538.445,0.0
53570.0,STARLINK-4550,PAYLOAD,2023-11-06 02:35:13,15.08876133,0.0001929,53.2176,290.392,106.4173,253.7031,0.0007593,0.00011829,0.0,0 STARLINK-4550,1 53570U 22101AV  23310.10779728  .00011829  00000-0  75930-3 0  9994,2 53570  53.2176 290.3920 0001929 106.4173 253.7031 15.08876133 67437,6917.77,95.435,540.969,538.301,0.0
53570.0,STARLINK-4550,PAYLOAD,2023-11-06 05:45:59,15.08882068,0.0001601,53.2171,289.8014,94.1444,265.9732,0.0008429,0.00013168,0.0,0 STARLINK-4550,1 53570U 22101AV  23310.24027385  .00013168  00000-0  84290-3 0  9991,2 53570  53.2171 289.8014 0001601  94.1444 265.9732 15.08882068 68146,6917.752,95.435,540.724,538.509,0.0
53570.0,STARLINK-4550,PAYLOAD,2023-11-06 15:18:17,15.08871381,0.0001125,53.217,288.0117,61.278,298.8325,0.00046142,7.069e-05,0.0,0 STARLINK-4550,1 53570U 22101AV  23310.63770786  .00007069  00000-0  46142-3 0  9991,2 53570  53.2170 288.0117 0001125  61.2780 298.8325 15.08871381 67518,6917.784,95.436,540.428,538.871,0.0
53570.0,STARLINK-4550,PAYLOAD,2023-11-07 04:01:25,15.08816575,0.0001535,53.2175,285.637,84.2248,275.8919,-0.00059328,-9.712e-05,0.0,0 STARLINK-4550,1 53570U 22101AV  23311.16765162 -.00009712  00000-0 -59328-3 0  9991,2 53570  53.2175 285.6370 0001535  84.2248 275.8919 15.08816575 67592,6917.952,95.439,540.879,538.755,0.0
53570.0,STARLINK-4550,PAYLOAD,2023-11-07 08:47:34,15.08822838,0.0001584,53.2179,284.7459,93.9704,266.1469,-0.00039162,-6.512e-05,0.0,0 STARLINK-4550,1 53570U 22101AV  23311.36637112 -.00006512  00000-0 -39162-3 0  9995,2 53570  53.2179 284.7459 0001584  93.9704 266.1469 15.08822838 67628,6917.933,95.439,540.894,538.702,0.0
53570.0,STARLINK-4550,PAYLOAD,2023-11-08 02:16:49,15.0883115,0.0001392,53.2176,281.4748,87.7102,272.405,0.00017438,2.488e-05,0.0,0 STARLINK-4550,1 53570U 22101AV  23312.09501566  .00002488  00000-0  17438-3 0  9997,2 53570  53.2176 281.4748 0001392  87.7102 272.4050 15.08831150 67735,6917.907,95.438,540.735,538.809,0.0
53570.0,STARLINK-4550,PAYLOAD,2023-11-08 07:02:59,15.08840487,0.0001449,53.2176,280.5835,91.6599,268.4559,0.001075,0.00016862,0.0,0 STARLINK-4550,1 53570U 22101AV  23312.29373920  .00016862  00000-0  10750-2 0  9990,2 53570  53.2176 280.5835 0001449  91.6599 268.4559 15.08840487 68451,6917.879,95.438,540.746,538.741,0.0
53570.0,STARLINK-4550,PAYLOAD,2023-11-09 03:42:59,15.08852974,0.0001506,53.2168,276.7162,97.4546,262.6617,0.00057617,8.897e-05,0.0,0 STARLINK-4550,1 53570U 22101AV  23313.15485536  .00008897  00000-0  57617-3 0  9996,2 53570  53.2168 276.7162 0001506  97.4546 262.6617 15.08852974 67894,6917.841,95.437,540.748,538.664,0.0
53570.0,STARLINK-4550,PAYLOAD,2023-11-09 06:53:45,15.08866118,0.0001449,53.2166,276.1222,89.4443,270.6715,0.00098517,0.00015437,0.0,0 STARLINK-4550,1 53570U 22101AV  23313.28733285  .00015437  00000-0  98517-3 0  9999,2 53570  53.2166 276.1222 0001449  89.4443 270.6715 15.08866118 67912,6917.801,95.436,540.668,538.663,0.0
53570.0,STARLINK-4550,PAYLOAD,2023-11-10 03:33:46,15.08853471,0.0001396,53.2168,272.2533,128.8828,231.2289,0.00076307,0.00011882,0.0,0 STARLINK-4550,1 53570U 22101AV  23314.14845312  .00011882  00000-0  76307-3 0  9993,2 53570  53.2168 272.2533 0001396 128.8828 231.2289 15.08853471 68044,6917.839,95.437,540.67,538.738,0.0
